[{"OBJECT_NAME":"GPS BIIF-4","OBJECT_ID":"2013-023A","EPOCH":"2026-03-01T23:44:03.785280","MEAN_MOTION":2.00564153,"ECCENTRICITY":0.01415529,"INCLINATION":54.5878,"RA_OF_ASC_NODE":273.3391,"ARG_OF_PERICENTER":49.8819,"MEAN_ANOMALY":311.3944,"EPHEMERIS_TYPE":0,"CLASSIFICATION_TYPE":"U","NORAD_CAT_ID":39166,"ELEMENT_SET_NO":999,"REV_AT_EPOCH":9373,"BSTAR":0,"MEAN_MOTION_DOT":6.0e-8,"MEAN_MOTION_DDOT":0},{"OBJECT_NAME":"INSAT-3D","OBJECT_ID":"2013-038B","EPOCH":"2026-03-02T23:17:17.654208","MEAN_MOTION":1.00273934,"ECCENTRICITY":0.0001804,"INCLINATION":1.6518,"RA_OF_ASC_NODE":83.9345,"ARG_OF_PERICENTER":238.4653,"MEAN_ANOMALY":317.1344,"EPHEMERIS_TYPE":0,"CLASSIFICATION_TYPE":"U","NORAD_CAT_ID":39216,"ELEMENT_SET_NO":999,"REV_AT_EPOCH":4601,"BSTAR":0,"MEAN_MOTION_DOT":-3.54e-6,"MEAN_MOTION_DDOT":0},{"OBJECT_NAME":"GPS BIIF-5","OBJECT_ID":"2014-008A","EPOCH":"2026-03-02T11:39:40.334400","MEAN_MOTION":2.00552925,"ECCENTRICITY":0.00822262,"INCLINATION":53.6376,"RA_OF_ASC_NODE":153.6733,"ARG_OF_PERICENTER":228.2234,"MEAN_ANOMALY":131.0919,"EPHEMERIS_TYPE":0,"CLASSIFICATION_TYPE":"U","NORAD_CAT_ID":39533,"ELEMENT_SET_NO":999,"REV_AT_EPOCH":8754,"BSTAR":0,"MEAN_MOTION_DOT":-1.3e-7,"MEAN_MOTION_DDOT":0},{"OBJECT_NAME":"LUCH 5V","OBJECT_ID":"2014-023A","EPOCH":"2026-03-03T02:32:41.282304","MEAN_MOTION":1.00272065,"ECCENTRICITY":0.0002951,"INCLINATION":4.8715,"RA_OF_ASC_NODE":70.7857,"ARG_OF_PERICENTER":275.9339,"MEAN_ANOMALY":307.0543,"EPHEMERIS_TYPE":0,"CLASSIFICATION_TYPE":"U","NORAD_CAT_ID":39727,"ELEMENT_SET_NO":999,"REV_AT_EPOCH":4329,"BSTAR":0,"MEAN_MOTION_DOT":-2.82e-6,"MEAN_MOTION_DDOT":0},{"OBJECT_NAME":"GPS BIIF-6","OBJECT_ID":"2014-026A","EPOCH":"2026-03-02T18:20:19.276800","MEAN_MOTION":2.00568745,"ECCENTRICITY":0.0039889,"INCLINATION":56.5473,"RA_OF_ASC_NODE":335.6635,"ARG_OF_PERICENTER":324.4172,"MEAN_ANOMALY":35.3477,"EPHEMERIS_TYPE":0,"CLASSIFICATION_TYPE":"U","NORAD_CAT_ID":39741,"ELEMENT_SET_NO":999,"REV_AT_EPOCH":8640,"BSTAR":0,"MEAN_MOTION_DOT":-9.6e-7,"MEAN_MOTION_DDOT":0},{"OBJECT_NAME":"GPS BIIF-7","OBJECT_ID":"2014-045A","EPOCH":"2026-03-02T20:26:10.464864","MEAN_MOTION":2.00551356,"ECCENTRICITY":0.0031535,"INCLINATION":55.28,"RA_OF_ASC_NODE":92.7002,"ARG_OF_PERICENTER":120.5034,"MEAN_ANOMALY":239.8806,"EPHEMERIS_TYPE":0,"CLASSIFICATION_TYPE":"U","NORAD_CAT_ID":40105,"ELEMENT_SET_NO":999,"REV_AT_EPOCH":8394,"BSTAR":0,"MEAN_MOTION_DOT":1.9e-7,"MEAN_MOTION_DDOT":0},{"OBJECT_NAME":"GSAT0201 (GALILEO 5)","OBJECT_ID":"2014-050A","EPOCH":"2026-02-28T13:00:15.357024","MEAN_MOTION":1.85519933,"ECCENTRICITY":0.16571229,"INCLINATION":48.9916,"RA_OF_ASC_NODE":277.8823,"ARG_OF_PERICENTER":175.1843,"MEAN_ANOMALY":186.6547,"EPHEMERIS_TYPE":0,"CLASSIFICATION_TYPE":"U","NORAD_CAT_ID":40128,"ELEMENT_SET_NO":999,"REV_AT_EPOCH":7630,"BSTAR":0,"MEAN_MOTION_DOT":0,"MEAN_MOTION_DDOT":0},{"OBJECT_NAME":"GSAT0202 (GALILEO 6)","OBJECT_ID":"2014-050B","EPOCH":"2026-02-27T04:20:23.841600","MEAN_MOTION":1.85520639,"ECCENTRICITY":0.16578902,"INCLINATION":49.0095,"RA_OF_ASC_NODE":277.0224,"ARG_OF_PERICENTER":175.8719,"MEAN_ANOMALY":185.7122,"EPHEMERIS_TYPE":0,"CLASSIFICATION_TYPE":"U","NORAD_CAT_ID":40129,"ELEMENT_SET_NO":999,"REV_AT_EPOCH":7844,"BSTAR":0,"MEAN_MOTION_DOT":1.2e-7,"MEAN_MOTION_DDOT":0},{"OBJECT_NAME":"GPS BIIF-8","OBJECT_ID":"2014-068A","EPOCH":"2026-03-02T17:30:51.620832","MEAN_MOTION":2.00569705,"ECCENTRICITY":0.0062729,"INCLINATION":56.9183,"RA_OF_ASC_NODE":35.0563,"ARG_OF_PERICENTER":68.0429,"MEAN_ANOMALY":292.6114,"EPHEMERIS_TYPE":0,"CLASSIFICATION_TYPE":"U","NORAD_CAT_ID":40294,"ELEMENT_SET_NO":999,"REV_AT_EPOCH":8307,"BSTAR":0,"MEAN_MOTION_DOT":-7.2e-7,"MEAN_MOTION_DDOT":0},{"OBJECT_NAME":"GLONASS-K 2","OBJECT_ID":"2014-075A","EPOCH":"2026-03-01T20:09:56.477664","MEAN_MOTION":2.13101099,"ECCENTRICITY":0.00207353,"INCLINATION":63.617,"RA_OF_ASC_NODE":194.0851,"ARG_OF_PERICENTER":205.716,"MEAN_ANOMALY":154.1408,"EPHEMERIS_TYPE":0,"CLASSIFICATION_TYPE":"U","NORAD_CAT_ID":40315,"ELEMENT_SET_NO":999,"REV_AT_EPOCH":8756,"BSTAR":0,"MEAN_MOTION_DOT":-1.5e-7,"MEAN_MOTION_DDOT":0},{"OBJECT_NAME":"GPS BIIF-9","OBJECT_ID":"2015-013A","EPOCH":"2026-03-02T08:41:54.930048","MEAN_MOTION":2.00557677,"ECCENTRICITY":0.0108729,"INCLINATION":53.1867,"RA_OF_ASC_NODE":208.5939,"ARG_OF_PERICENTER":39.7757,"MEAN_ANOMALY":320.9603,"EPHEMERIS_TYPE":0,"CLASSIFICATION_TYPE":"U","NORAD_CAT_ID":40534,"ELEMENT_SET_NO":999,"REV_AT_EPOCH":7968,"BSTAR":0,"MEAN_MOTION_DOT":-1.5e-7,"MEAN_MOTION_DDOT":0},{"OBJECT_NAME":"GSAT0203 (GALILEO 7)","OBJECT_ID":"2015-017A","EPOCH":"2026-02-27T12:31:05.039904","MEAN_MOTION":1.70475495,"ECCENTRICITY":0.00051612,"INCLINATION":56.8234,"RA_OF_ASC_NODE":344.5881,"ARG_OF_PERICENTER":295.0116,"MEAN_ANOMALY":64.9415,"EPHEMERIS_TYPE":0,"CLASSIFICATION_TYPE":"U","NORAD_CAT_ID":40544,"ELEMENT_SET_NO":999,"REV_AT_EPOCH":6733,"BSTAR":0,"MEAN_MOTION_DOT":-1.03e-6,"MEAN_MOTION_DDOT":0},{"OBJECT_NAME":"GSAT0204 (GALILEO 8)","OBJECT_ID":"2015-017B","EPOCH":"2026-02-27T04:34:27.961824","MEAN_MOTION":1.7047537,"ECCENTRICITY":0.00043897,"INCLINATION":56.8295,"RA_OF_ASC_NODE":344.6151,"ARG_OF_PERICENTER":286.3298,"MEAN_ANOMALY":73.6287,"EPHEMERIS_TYPE":0,"CLASSIFICATION_TYPE":"U","NORAD_CAT_ID":40545,"ELEMENT_SET_NO":999,"REV_AT_EPOCH":3037,"BSTAR":0,"MEAN_MOTION_DOT":-1.02e-6,"MEAN_MOTION_DDOT":0},{"OBJECT_NAME":"GPS BIIF-10","OBJECT_ID":"2015-033A","EPOCH":"2026-03-02T12:33:09.231264","MEAN_MOTION":2.00561632,"ECCENTRICITY":0.01144532,"INCLINATION":54.0659,"RA_OF_ASC_NODE":271.4826,"ARG_OF_PERICENTER":28.9403,"MEAN_ANOMALY":331.7281,"EPHEMERIS_TYPE":0,"CLASSIFICATION_TYPE":"U","NORAD_CAT_ID":40730,"ELEMENT_SET_NO":999,"REV_AT_EPOCH":7785,"BSTAR":0,"MEAN_MOTION_DOT":1.0e-8,"MEAN_MOTION_DDOT":0},{"OBJECT_NAME":"METEOSAT-11 (MSG-4)","OBJECT_ID":"2015-034A","EPOCH":"2026-03-03T02:08:28.601952","MEAN_MOTION":1.00265683,"ECCENTRICITY":0.00018,"INCLINATION":2.9341,"RA_OF_ASC_NODE":71.6891,"ARG_OF_PERICENTER":270.8063,"MEAN_ANOMALY":219.9029,"EPHEMERIS_TYPE":0,"CLASSIFICATION_TYPE":"U","NORAD_CAT_ID":40732,"ELEMENT_SET_NO":999,"REV_AT_EPOCH":615,"BSTAR":0,"MEAN_MOTION_DOT":4.7e-7,"MEAN_MOTION_DDOT":0},{"OBJECT_NAME":"GSAT0205 (GALILEO 9)","OBJECT_ID":"2015-045A","EPOCH":"2026-02-12T22:54:15.154848","MEAN_MOTION":1.674108,"ECCENTRICITY":0.03595998,"INCLINATION":53.6403,"RA_OF_ASC_NODE":225.6057,"ARG_OF_PERICENTER":59.9658,"MEAN_ANOMALY":303.5577,"EPHEMERIS_TYPE":0,"CLASSIFICATION_TYPE":"U","NORAD_CAT_ID":40889,"ELEMENT_SET_NO":999,"REV_AT_EPOCH":6421,"BSTAR":0,"MEAN_MOTION_DOT":7.8e-7,"MEAN_MOTION_DDOT":0},{"OBJECT_NAME":"GSAT0206 (GALILEO 10)","OBJECT_ID":"2015-045B","EPOCH":"2026-03-02T16:46:29.944416","MEAN_MOTION":1.7047364,"ECCENTRICITY":0.0003832,"INCLINATION":54.9811,"RA_OF_ASC_NODE":224.5416,"ARG_OF_PERICENTER":50.0037,"MEAN_ANOMALY":309.9714,"EPHEMERIS_TYPE":0,"CLASSIFICATION_TYPE":"U","NORAD_CAT_ID":40890,"ELEMENT_SET_NO":999,"REV_AT_EPOCH":6522,"BSTAR":0,"MEAN_MOTION_DOT":1.0e-7,"MEAN_MOTION_DDOT":0}]
